IRIDIUM 921 [-]         
1 24873U 97034E   23333.16464742  .00024212  00000+0  87472-3 0  9996
2 24873  86.3878  26.6364 0002490 309.2935  50.8091 15.28347815444660
IRIDIUM 26 [-]          
1 24903U 97043A   23332.56342563  .00000836  00000+0  28069-3 0  9992
2 24903  86.3959 348.3666 0002289  97.4803 262.6654 14.36097158375390
IRIDIUM 22 [-]          
1 24907U 97043E   23333.51003151  .00000776  00000+0  26575-3 0  9992
2 24907  86.3965 351.0463 0002133  91.3902 268.7539 14.35004231375611
DUMMY MASS 1 [-]        
1 24925U 97048A   23333.26408628  .00000879  00000+0  97560-4 0  9994
2 24925  86.3370  36.7911 0006893  11.3770 348.7609 14.85945586421305
DUMMY MASS 2 [-]        
1 24926U 97048B   23333.47027202  .00000888  00000+0  99169-4 0  9990
2 24926  86.3370  38.2033 0008143  18.6547 341.4974 14.85707003421125
IRIDIUM 29 [-]          
1 24944U 97051A   23333.15820469  .00000806  00000+0  27399-3 0  9990
2 24944  86.3980  21.1511 0001949  88.7625 271.3795 14.35459806372268
IRIDIUM 33 [-]          
1 24946U 97051C   23333.21087995  .00000547  00000+0  18839-3 0  9999
2 24946  86.3895  20.3995 0009783 118.4506 241.7677 14.34188409371610
IRIDIUM 28 [-]          
1 24948U 97051E   23333.15522565  .00000703  00000+0  23362-3 0  9992
2 24948  86.3985  18.9943 0002451 100.2732 259.8741 14.36403332372635
